<?xml version="1.0" encoding="UTF-8"?>
<ndm xmlns:xsi="https://www.w3.org/2001/XMLSchema-instance" xsi:noNamespaceSchemaLocation="https://sanaregistry.org/r/ndmxml/ndmxml-1.0-master.xsd">
<omm id="CCSDS_OMM_VERS" version="2.0">
<header><CREATION_DATE/><ORIGINATOR/></header><body><segment><metadata><OBJECT_NAME>FALCON 9 DEB</OBJECT_NAME><OBJECT_ID>2020-057BM</OBJECT_ID><CENTER_NAME>EARTH</CENTER_NAME><REF_FRAME>TEME</REF_FRAME><TIME_SYSTEM>UTC</TIME_SYSTEM><MEAN_ELEMENT_THEORY>SGP4</MEAN_ELEMENT_THEORY></metadata><data><meanElements><EPOCH>2020-09-08T16:39:01.586304</EPOCH><MEAN_MOTION>16.11659453</MEAN_MOTION><ECCENTRICITY>.0067346</ECCENTRICITY><INCLINATION>52.9899</INCLINATION><RA_OF_ASC_NODE>332.6936</RA_OF_ASC_NODE><ARG_OF_PERICENTER>118.7771</ARG_OF_PERICENTER><MEAN_ANOMALY>242.0049</MEAN_ANOMALY></meanElements><tleParameters><EPHEMERIS_TYPE>0</EPHEMERIS_TYPE><CLASSIFICATION_TYPE>U</CLASSIFICATION_TYPE><NORAD_CAT_ID>46176</NORAD_CAT_ID><ELEMENT_SET_NO>999</ELEMENT_SET_NO><REV_AT_EPOCH>339</REV_AT_EPOCH><BSTAR>.39244E-3</BSTAR><MEAN_MOTION_DOT>6.1965E-3</MEAN_MOTION_DOT><MEAN_MOTION_DDOT>.11629E-4</MEAN_MOTION_DDOT></tleParameters></data></segment></body></omm>
<omm id="CCSDS_OMM_VERS" version="2.0">
<header><CREATION_DATE/><ORIGINATOR/></header><body><segment><metadata><OBJECT_NAME>FALCON 9 DEB</OBJECT_NAME><OBJECT_ID>2020-057BN</OBJECT_ID><CENTER_NAME>EARTH</CENTER_NAME><REF_FRAME>TEME</REF_FRAME><TIME_SYSTEM>UTC</TIME_SYSTEM><MEAN_ELEMENT_THEORY>SGP4</MEAN_ELEMENT_THEORY></metadata><data><meanElements><EPOCH>2020-09-09T10:56:43.901952</EPOCH><MEAN_MOTION>16.20461477</MEAN_MOTION><ECCENTRICITY>.0050075</ECCENTRICITY><INCLINATION>52.9899</INCLINATION><RA_OF_ASC_NODE>328.1531</RA_OF_ASC_NODE><ARG_OF_PERICENTER>122.5576</ARG_OF_PERICENTER><MEAN_ANOMALY>238.0312</MEAN_ANOMALY></meanElements><tleParameters><EPHEMERIS_TYPE>0</EPHEMERIS_TYPE><CLASSIFICATION_TYPE>U</CLASSIFICATION_TYPE><NORAD_CAT_ID>46177</NORAD_CAT_ID><ELEMENT_SET_NO>999</ELEMENT_SET_NO><REV_AT_EPOCH>352</REV_AT_EPOCH><BSTAR>.43495E-3</BSTAR><MEAN_MOTION_DOT>1.186455E-2</MEAN_MOTION_DOT><MEAN_MOTION_DDOT>.11838E-4</MEAN_MOTION_DDOT></tleParameters></data></segment></body></omm>
<omm id="CCSDS_OMM_VERS" version="2.0">
<header><CREATION_DATE/><ORIGINATOR/></header><body><segment><metadata><OBJECT_NAME>FALCON 9 DEB</OBJECT_NAME><OBJECT_ID>2020-057BP</OBJECT_ID><CENTER_NAME>EARTH</CENTER_NAME><REF_FRAME>TEME</REF_FRAME><TIME_SYSTEM>UTC</TIME_SYSTEM><MEAN_ELEMENT_THEORY>SGP4</MEAN_ELEMENT_THEORY></metadata><data><meanElements><EPOCH>2020-09-09T10:26:02.717952</EPOCH><MEAN_MOTION>16.25900021</MEAN_MOTION><ECCENTRICITY>.0038250</ECCENTRICITY><INCLINATION>52.9906</INCLINATION><RA_OF_ASC_NODE>328.0102</RA_OF_ASC_NODE><ARG_OF_PERICENTER>118.8901</ARG_OF_PERICENTER><MEAN_ANOMALY>241.5985</MEAN_ANOMALY></meanElements><tleParameters><EPHEMERIS_TYPE>0</EPHEMERIS_TYPE><CLASSIFICATION_TYPE>U</CLASSIFICATION_TYPE><NORAD_CAT_ID>46178</NORAD_CAT_ID><ELEMENT_SET_NO>999</ELEMENT_SET_NO><REV_AT_EPOCH>352</REV_AT_EPOCH><BSTAR>.46562E-3</BSTAR><MEAN_MOTION_DOT>1.839457E-2</MEAN_MOTION_DOT><MEAN_MOTION_DDOT>.11972E-4</MEAN_MOTION_DDOT></tleParameters></data></segment></body></omm>
<omm id="CCSDS_OMM_VERS" version="2.0">
<header><CREATION_DATE/><ORIGINATOR/></header><body><segment><metadata><OBJECT_NAME>SKYSAT-C17</OBJECT_NAME><OBJECT_ID>2020-057BQ</OBJECT_ID><CENTER_NAME>EARTH</CENTER_NAME><REF_FRAME>TEME</REF_FRAME><TIME_SYSTEM>UTC</TIME_SYSTEM><MEAN_ELEMENT_THEORY>SGP4</MEAN_ELEMENT_THEORY></metadata><data><meanElements><EPOCH>2020-09-09T10:51:30.813408</EPOCH><MEAN_MOTION>15.70628662</MEAN_MOTION><ECCENTRICITY>.0011807</ECCENTRICITY><INCLINATION>53.0017</INCLINATION><RA_OF_ASC_NODE>331.8988</RA_OF_ASC_NODE><ARG_OF_PERICENTER>30.1588</ARG_OF_PERICENTER><MEAN_ANOMALY>330.0106</MEAN_ANOMALY></meanElements><tleParameters><EPHEMERIS_TYPE>0</EPHEMERIS_TYPE><CLASSIFICATION_TYPE>U</CLASSIFICATION_TYPE><NORAD_CAT_ID>46179</NORAD_CAT_ID><ELEMENT_SET_NO>999</ELEMENT_SET_NO><REV_AT_EPOCH>306</REV_AT_EPOCH><BSTAR>.56780E-4</BSTAR><MEAN_MOTION_DOT>6.568E-5</MEAN_MOTION_DOT><MEAN_MOTION_DDOT>0</MEAN_MOTION_DDOT></tleParameters></data></segment></body></omm>
<omm id="CCSDS_OMM_VERS" version="2.0">
<header><CREATION_DATE/><ORIGINATOR/></header><body><segment><metadata><OBJECT_NAME>SKYSAT-C18</OBJECT_NAME><OBJECT_ID>2020-057BR</OBJECT_ID><CENTER_NAME>EARTH</CENTER_NAME><REF_FRAME>TEME</REF_FRAME><TIME_SYSTEM>UTC</TIME_SYSTEM><MEAN_ELEMENT_THEORY>SGP4</MEAN_ELEMENT_THEORY></metadata><data><meanElements><EPOCH>2020-09-08T14:26:26.976768</EPOCH><MEAN_MOTION>15.88100276</MEAN_MOTION><ECCENTRICITY>.0066045</ECCENTRICITY><INCLINATION>52.9995</INCLINATION><RA_OF_ASC_NODE>335.0923</RA_OF_ASC_NODE><ARG_OF_PERICENTER>117.4856</ARG_OF_PERICENTER><MEAN_ANOMALY>243.2902</MEAN_ANOMALY></meanElements><tleParameters><EPHEMERIS_TYPE>0</EPHEMERIS_TYPE><CLASSIFICATION_TYPE>U</CLASSIFICATION_TYPE><NORAD_CAT_ID>46180</NORAD_CAT_ID><ELEMENT_SET_NO>999</ELEMENT_SET_NO><REV_AT_EPOCH>297</REV_AT_EPOCH><BSTAR>.98933E-4</BSTAR><MEAN_MOTION_DOT>2.9921E-4</MEAN_MOTION_DOT><MEAN_MOTION_DDOT>.11404E-4</MEAN_MOTION_DDOT></tleParameters></data></segment></body></omm>
<omm id="CCSDS_OMM_VERS" version="2.0">
<header><CREATION_DATE/><ORIGINATOR/></header><body><segment><metadata><OBJECT_NAME>2020-058A</OBJECT_NAME><OBJECT_ID>2020-058A</OBJECT_ID><CENTER_NAME>EARTH</CENTER_NAME><REF_FRAME>TEME</REF_FRAME><TIME_SYSTEM>UTC</TIME_SYSTEM><MEAN_ELEMENT_THEORY>SGP4</MEAN_ELEMENT_THEORY></metadata><data><meanElements><EPOCH>2020-09-09T05:25:18.787296</EPOCH><MEAN_MOTION>15.23941956</MEAN_MOTION><ECCENTRICITY>.0016740</ECCENTRICITY><INCLINATION>97.5023</INCLINATION><RA_OF_ASC_NODE>300.7399</RA_OF_ASC_NODE><ARG_OF_PERICENTER>202.9560</ARG_OF_PERICENTER><MEAN_ANOMALY>197.4716</MEAN_ANOMALY></meanElements><tleParameters><EPHEMERIS_TYPE>0</EPHEMERIS_TYPE><CLASSIFICATION_TYPE>U</CLASSIFICATION_TYPE><NORAD_CAT_ID>46232</NORAD_CAT_ID><ELEMENT_SET_NO>999</ELEMENT_SET_NO><REV_AT_EPOCH>260</REV_AT_EPOCH><BSTAR>.00000E+0</BSTAR><MEAN_MOTION_DOT>-7.4E-7</MEAN_MOTION_DOT><MEAN_MOTION_DDOT>0</MEAN_MOTION_DDOT></tleParameters></data></segment></body></omm>
<omm id="CCSDS_OMM_VERS" version="2.0">
<header><CREATION_DATE/><ORIGINATOR/></header><body><segment><metadata><OBJECT_NAME>2020-058B</OBJECT_NAME><OBJECT_ID>2020-058B</OBJECT_ID><CENTER_NAME>EARTH</CENTER_NAME><REF_FRAME>TEME</REF_FRAME><TIME_SYSTEM>UTC</TIME_SYSTEM><MEAN_ELEMENT_THEORY>SGP4</MEAN_ELEMENT_THEORY></metadata><data><meanElements><EPOCH>2020-09-09T05:33:37.248768</EPOCH><MEAN_MOTION>15.24056233</MEAN_MOTION><ECCENTRICITY>.0015554</ECCENTRICITY><INCLINATION>97.5022</INCLINATION><RA_OF_ASC_NODE>300.7506</RA_OF_ASC_NODE><ARG_OF_PERICENTER>205.6279</ARG_OF_PERICENTER><MEAN_ANOMALY>239.1018</MEAN_ANOMALY></meanElements><tleParameters><EPHEMERIS_TYPE>0</EPHEMERIS_TYPE><CLASSIFICATION_TYPE>U</CLASSIFICATION_TYPE><NORAD_CAT_ID>46233</NORAD_CAT_ID><ELEMENT_SET_NO>999</ELEMENT_SET_NO><REV_AT_EPOCH>259</REV_AT_EPOCH><BSTAR>.49108E-4</BSTAR><MEAN_MOTION_DOT>1.121E-5</MEAN_MOTION_DOT><MEAN_MOTION_DDOT>0</MEAN_MOTION_DDOT></tleParameters></data></segment></body></omm>
<omm id="CCSDS_OMM_VERS" version="2.0">
<header><CREATION_DATE/><ORIGINATOR/></header><body><segment><metadata><OBJECT_NAME>2020-058C</OBJECT_NAME><OBJECT_ID>2020-058C</OBJECT_ID><CENTER_NAME>EARTH</CENTER_NAME><REF_FRAME>TEME</REF_FRAME><TIME_SYSTEM>UTC</TIME_SYSTEM><MEAN_ELEMENT_THEORY>SGP4</MEAN_ELEMENT_THEORY></metadata><data><meanElements><EPOCH>2020-09-09T13:31:26.044896</EPOCH><MEAN_MOTION>15.24083685</MEAN_MOTION><ECCENTRICITY>.0015582</ECCENTRICITY><INCLINATION>97.5019</INCLINATION><RA_OF_ASC_NODE>301.0833</RA_OF_ASC_NODE><ARG_OF_PERICENTER>204.1880</ARG_OF_PERICENTER><MEAN_ANOMALY>260.1588</MEAN_ANOMALY></meanElements><tleParameters><EPHEMERIS_TYPE>0</EPHEMERIS_TYPE><CLASSIFICATION_TYPE>U</CLASSIFICATION_TYPE><NORAD_CAT_ID>46234</NORAD_CAT_ID><ELEMENT_SET_NO>999</ELEMENT_SET_NO><REV_AT_EPOCH>264</REV_AT_EPOCH><BSTAR>.11738E-3</BSTAR><MEAN_MOTION_DOT>2.785E-5</MEAN_MOTION_DOT><MEAN_MOTION_DDOT>0</MEAN_MOTION_DDOT></tleParameters></data></segment></body></omm>

</ndm>
